COMMENT,ORIGINATOR,NORAD_CAT_ID,OBJECT_NAME,OBJECT_TYPE,CLASSIFICATION_TYPE,INTLDES,EPOCH,EPOCH_MICROSECONDS,MEAN_MOTION,ECCENTRICITY,INCLINATION,RA_OF_ASC_NODE,ARG_OF_PERICENTER,MEAN_ANOMALY,EPHEMERIS_TYPE,ELEMENT_SET_NO,REV_AT_EPOCH,BSTAR,MEAN_MOTION_DOT,MEAN_MOTION_DDOT,FILE,TLE_LINE0,TLE_LINE1,TLE_LINE2,OBJECT_ID,OBJECT_NUMBER,SEMIMAJOR_AXIS,PERIOD,APOGEE,PERIGEE,DECAYED,date
GENERATED VIA SPACETRACK.ORG API,18 SPCS,52181,SPACEBEE-131,PAYLOAD,U,22033AA,2023/3/16 4:18,200224,15.36417291,0.0007311,97.3538,158.3475,146.9198,213.2504,0,999,5315,0.0022326,0.00080024,0,3862295,0 SPACEBEE-131,1 52181U 22033AA  23075.17946991  .00080024  00000-0  22326-2 0  9991,2 52181  97.3538 158.3475 0007311 146.9198 213.2504 15.36417291 53157,2022-033AA,52181,6834.851,93.725,461.713,451.719,1,
GENERATED VIA SPACETRACK.ORG API,18 SPCS,52181,SPACEBEE-131,PAYLOAD,U,22033AA,2023/3/17 5:18,749824,15.36535346,0.0007352,97.3539,159.3893,143.2984,216.8765,0,999,5329,0.001324,0.00047403,0,3862940,0 SPACEBEE-131,1 52181U 22033AA  23076.22149016  .00047403  00000-0  13240-2 0  9990,2 52181  97.3539 159.3893 0007352 143.2984 216.8765 15.36535346 53296,2022-033AA,52181,6834.501,93.717,461.391,451.341,1,
GENERATED VIA SPACETRACK.ORG API,18 SPCS,52181,SPACEBEE-131,PAYLOAD,U,22033AA,2023/3/17 5:18,749824,15.36535346,0.0007352,97.3539,159.3893,143.2984,216.8765,0,999,5331,0.001324,0.00047403,0,3863278,0 SPACEBEE-131,1 52181U 22033AA  23076.22149016  .00047403  00000-0  13240-2 0  9990,2 52181  97.3539 159.3893 0007352 143.2984 216.8765 15.36535346 53319,2022-033AA,52181,6834.501,93.717,461.391,451.341,1,
GENERATED VIA SPACETRACK.ORG API,18 SPCS,52181,SPACEBEE-131,PAYLOAD,U,22033AA,2023/3/18 11:00,451680,15.3666401,0.0007493,97.3538,160.6267,139.1144,221.0663,0,999,5348,0.0015212,0.00054755,0,3864195,0 SPACEBEE-131,1 52181U 22033AA  23077.45878995  .00054755  00000-0  15212-2 0  9990,2 52181  97.3538 160.6267 0007493 139.1144 221.0663 15.36664010 53480,2022-033AA,52181,6834.119,93.709,461.105,450.864,1,
GENERATED VIA SPACETRACK.ORG API,18 SPCS,52181,SPACEBEE-131,PAYLOAD,U,22033AA,2023/3/18 18:49,260064,15.36700943,0.0007059,97.354,160.9525,138.1627,222.0158,0,999,5355,0.0014414,0.00051916,0,3864479,0 SPACEBEE-131,1 52181U 22033AA  23077.78437801  .00051916  00000-0  14414-2 0  9992,2 52181  97.3540 160.9525 0007059 138.1627 222.0158 15.36700943 53550,2022-033AA,52181,6834.01,93.707,460.699,451.051,1,
GENERATED VIA SPACETRACK.ORG API,18 SPCS,52181,SPACEBEE-131,PAYLOAD,U,22033AA,2023/3/19 4:12,283872,15.36745101,0.0007233,97.3542,161.3429,137.3071,222.8736,0,999,5361,0.0013375,0.00048215,0,3865049,0 SPACEBEE-131,1 52181U 22033AA  23078.17507273  .00048215  00000-0  13375-2 0  9990,2 52181  97.3542 161.3429 0007233 137.3071 222.8736 15.36745101 53610,2022-033AA,52181,6833.879,93.705,460.687,450.801,1,
GENERATED VIA SPACETRACK.ORG API,18 SPCS,52181,SPACEBEE-131,PAYLOAD,U,22033AA,2023/3/19 18:15,604544,15.36809485,0.0007187,97.354,161.9293,134.863,225.3199,0,999,5368,0.0015457,0.00055903,0,3865324,0 SPACEBEE-131,1 52181U 22033AA  23078.76109496  .00055903  00000-0  15457-2 0  9995,2 52181  97.3540 161.9293 0007187 134.8630 225.3199 15.36809485 53688,2022-033AA,52181,6833.688,93.701,460.464,450.642,1,
GENERATED VIA SPACETRACK.ORG API,18 SPCS,52181,SPACEBEE-131,PAYLOAD,U,22033AA,2023/3/19 18:15,604544,15.36809485,0.0007187,97.354,161.9293,134.863,225.3199,0,999,5370,0.0015457,0.00055903,0,3865354,0 SPACEBEE-131,1 52181U 22033AA  23078.76109496  .00055903  00000-0  15457-2 0  9995,2 52181  97.3540 161.9293 0007187 134.8630 225.3199 15.36809485 53701,2022-033AA,52181,6833.688,93.701,460.464,450.642,1,
GENERATED VIA SPACETRACK.ORG API,18 SPCS,52181,SPACEBEE-131,PAYLOAD,U,22033AA,2023/3/20 5:12,723520,15.36864762,0.0007268,97.3539,162.3847,133.9333,226.2513,0,999,5377,0.0014768,0.00053487,0,3865912,0 SPACEBEE-131,1 52181U 22033AA  23079.21687180  .00053487  00000-0  14768-2 0  9996,2 52181  97.3539 162.3847 0007268 133.9333 226.2513 15.36864762 53775,2022-033AA,52181,6833.524,93.697,460.356,450.423,1,
GENERATED VIA SPACETRACK.ORG API,18 SPCS,52181,SPACEBEE-131,PAYLOAD,U,22033AA,2023/3/20 17:42,880288,15.36919904,0.0007157,97.3535,162.906,132.0261,228.1593,0,999,5385,0.0015097,0.00054785,0,3866115,0 SPACEBEE-131,1 52181U 22033AA  23079.73774167  .00054785  00000-0  15097-2 0  9993,2 52181  97.3535 162.9060 0007157 132.0261 228.1593 15.36919904 53858,2022-033AA,52181,6833.361,93.694,460.116,450.335,1,
GENERATED VIA SPACETRACK.ORG API,18 SPCS,52181,SPACEBEE-131,PAYLOAD,U,22033AA,2023/3/21 4:38,83264,15.36980656,0.0007162,97.3536,163.3615,131.3148,228.8714,0,999,5390,0.0016087,0.00058526,0,3866500,0 SPACEBEE-131,1 52181U 22033AA  23080.19348476  .00058526  00000-0  16087-2 0  9992,2 52181  97.3536 163.3615 0007162 131.3148 228.8714 15.36980656 53902,2022-033AA,52181,6833.181,93.69,459.94,450.152,1,
GENERATED VIA SPACETRACK.ORG API,18 SPCS,52181,SPACEBEE-131,PAYLOAD,U,22033AA,2023/3/21 4:38,83264,15.36980656,0.0007162,97.3536,163.3615,131.3148,228.8714,0,999,5392,0.0016087,0.00058526,0,3866730,0 SPACEBEE-131,1 52181U 22033AA  23080.19348476  .00058526  00000-0  16087-2 0  9992,2 52181  97.3536 163.3615 0007162 131.3148 228.8714 15.36980656 53924,2022-033AA,52181,6833.181,93.69,459.94,450.152,1,
GENERATED VIA SPACETRACK.ORG API,18 SPCS,52181,SPACEBEE-131,PAYLOAD,U,22033AA,2023/3/22 18:08,675840,15.3716956,0.0007061,97.3531,164.925,125.6462,234.544,0,999,5414,0.0017583,0.00064414,0,3867896,0 SPACEBEE-131,1 52181U 22033AA  23081.75591060  .00064414  00000-0  17583-2 0  9999,2 52181  97.3531 164.9250 0007061 125.6462 234.5440 15.37169560 54143,2022-033AA,52181,6832.621,93.679,459.31,449.661,1,
GENERATED VIA SPACETRACK.ORG API,18 SPCS,52181,SPACEBEE-131,PAYLOAD,U,22033AA,2023/3/22 18:08,675840,15.3716956,0.0007061,97.3531,164.925,125.6462,234.544,0,999,5416,0.0017583,0.00064414,0,3868201,0 SPACEBEE-131,1 52181U 22033AA  23081.75591060  .00064414  00000-0  17583-2 0  9999,2 52181  97.3531 164.9250 0007061 125.6462 234.5440 15.37169560 54165,2022-033AA,52181,6832.621,93.679,459.31,449.661,1,
GENERATED VIA SPACETRACK.ORG API,18 SPCS,52181,SPACEBEE-131,PAYLOAD,U,22033AA,2023/3/23 11:19,971616,15.37255265,0.000698,97.3528,165.6417,123.3881,236.8032,0,999,5427,0.0016432,0.00060325,0,3868494,0 SPACEBEE-131,1 52181U 22033AA  23082.47195569  .00060325  00000-0  16432-2 0  9992,2 52181  97.3528 165.6417 0006980 123.3881 236.8032 15.37255265 54275,2022-033AA,52181,6832.367,93.673,459.001,449.463,1,
GENERATED VIA SPACETRACK.ORG API,18 SPCS,52181,SPACEBEE-131,PAYLOAD,U,22033AA,2023/3/23 19:08,745856,15.37313601,0.0006921,97.3525,165.9671,122.7441,237.4472,0,999,5430,0.0023794,0.00087866,0,3868771,0 SPACEBEE-131,1 52181U 22033AA  23082.79741604  .00087866  00000-0  23794-2 0  9992,2 52181  97.3525 165.9671 0006921 122.7441 237.4472 15.37313601 54305,2022-033AA,52181,6832.194,93.67,458.788,449.331,1,
GENERATED VIA SPACETRACK.ORG API,18 SPCS,52181,SPACEBEE-131,PAYLOAD,U,22033AA,2023/3/24 4:30,161664,15.37425766,0.0006906,97.3523,166.3577,121.8106,238.3812,0,999,5436,0.0060463,0.00228351,0,3869177,0 SPACEBEE-131,1 52181U 22033AA  23083.18795326  .00228351  00000-0  60463-2 0  9996,2 52181  97.3523 166.3577 0006906 121.8106 238.3812 15.37425766 54364,2022-033AA,52181,6831.862,93.663,458.445,449.009,1,
GENERATED VIA SPACETRACK.ORG API,18 SPCS,52181,SPACEBEE-131,PAYLOAD,U,22033AA,2023/3/24 10:45,713920,15.37499436,0.0006924,97.3522,166.6186,121.0509,239.1416,0,999,5440,0.0066491,0.00252519,0,3869605,0 SPACEBEE-131,1 52181U 22033AA  23083.44829530  .00252519  00000-0  66491-2 0  9990,2 52181  97.3522 166.6186 0006924 121.0509 239.1416 15.37499436 54400,2022-033AA,52181,6831.644,93.659,458.239,448.778,1,
GENERATED VIA SPACETRACK.ORG API,18 SPCS,52181,SPACEBEE-131,PAYLOAD,U,22033AA,2023/3/24 10:45,713920,15.37499436,0.0006924,97.3522,166.6186,121.0509,239.1416,0,999,5442,0.0066491,0.00252519,0,3869846,0 SPACEBEE-131,1 52181U 22033AA  23083.44829530  .00252519  00000-0  66491-2 0  9990,2 52181  97.3522 166.6186 0006924 121.0509 239.1416 15.37499436 54422,2022-033AA,52181,6831.644,93.659,458.239,448.778,1,
GENERATED VIA SPACETRACK.ORG API,18 SPCS,52181,SPACEBEE-131,PAYLOAD,U,22033AA,2023/3/25 5:30,741024,15.37582643,0.0006973,97.352,167.4002,118.4028,241.792,0,999,5452,0.0018917,0.00070288,0,3870459,0 SPACEBEE-131,1 52181U 22033AA  23084.22927941  .00070288  00000-0  18917-2 0  9993,2 52181  97.3520 167.4002 0006973 118.4028 241.7920 15.37582643 54529,2022-033AA,52181,6831.397,93.654,458.026,448.499,1,
GENERATED VIA SPACETRACK.ORG API,18 SPCS,52181,SPACEBEE-131,PAYLOAD,U,22033AA,2023/3/25 17:59,773856,15.37650288,0.0006897,97.3516,167.9218,116.0785,244.117,0,999,5462,0.0019773,0.00073664,0,3871104,0 SPACEBEE-131,1 52181U 22033AA  23084.74990479  .00073664  00000-0  19773-2 0  9998,2 52181  97.3516 167.9218 0006897 116.0785 244.1170 15.37650288 54623,2022-033AA,52181,6831.197,93.649,457.773,448.35,1,
GENERATED VIA SPACETRACK.ORG API,18 SPCS,52181,SPACEBEE-131,PAYLOAD,U,22033AA,2023/3/26 4:55,307520,15.37711321,0.0006899,97.3515,168.3775,115.4081,244.7879,0,999,5467,0.0017497,0.00065233,0,3871689,0 SPACEBEE-131,1 52181U 22033AA  23085.20543180  .00065233  00000-0  17497-2 0  9997,2 52181  97.3515 168.3775 0006899 115.4081 244.7879 15.37711321 54672,2022-033AA,52181,6831.016,93.646,457.594,448.168,1,
GENERATED VIA SPACETRACK.ORG API,18 SPCS,52181,SPACEBEE-131,PAYLOAD,U,22033AA,2023/3/26 18:59,982464,15.37771602,0.0006827,97.3515,168.9644,113.239,246.9574,0,999,5476,0.0016572,0.00061873,0,3871934,0 SPACEBEE-131,1 52181U 22033AA  23085.79108776  .00061873  00000-0  16572-2 0  9998,2 52181  97.3515 168.9644 0006827 113.2390 246.9574 15.37771602 54767,2022-033AA,52181,6830.837,93.642,457.366,448.039,1,
